{
    "links": {
        "self": "http://www.neowsapp.com/rest/v1/neo/3739703?api_key=iIulBulltgU6a56xZRHN4H3l9WmuAYTsLGpBGhQ2"
    },
    "id": "3739703",
    "neo_reference_id": "3739703",
    "name": "(2016 AP131)",
    "designation": "2016 AP131",
    "nasa_jpl_url": "http://ssd.jpl.nasa.gov/sbdb.cgi?sstr=3739703",
    "absolute_magnitude_h": 27.0,
    "estimated_diameter": {
        "kilometers": {
            "estimated_diameter_min": 0.0105816886,
            "estimated_diameter_max": 0.023661375
        },
        "meters": {
            "estimated_diameter_min": 10.5816885933,
            "estimated_diameter_max": 23.6613750114
        },
        "miles": {
            "estimated_diameter_min": 0.0065751544,
            "estimated_diameter_max": 0.0147024923
        },
        "feet": {
            "estimated_diameter_min": 34.7168272045,
            "estimated_diameter_max": 77.6291855923
        }
    },
    "is_potentially_hazardous_asteroid": false,
    "close_approach_data": [
        {
            "close_approach_date": "2016-01-11",
            "close_approach_date_full": "2016-Jan-11 06:57",
            "epoch_date_close_approach": 1452495420000,
            "relative_velocity": {
                "kilometers_per_second": "8.1443490063",
                "kilometers_per_hour": "29319.6564225782",
                "miles_per_hour": "18218.0942921292"
            },
            "miss_distance": {
                "astronomical": "0.0158408892",
                "lunar": "6.1621058988",
                "kilometers": "2369763.283226004",
                "miles": "1472502.6233426952"
            },
            "orbiting_body": "Earth"
        }
    ],
    "orbital_data": {
        "orbit_id": "4",
        "orbit_determination_date": "2017-04-06 08:29:14",
        "first_observation_date": "2016-01-12",
        "last_observation_date": "2016-01-18",
        "data_arc_in_days": 6,
        "observations_used": 33,
        "orbit_uncertainty": "7",
        "minimum_orbit_intersection": ".0144837",
        "jupiter_tisserand_invariant": "3.212",
        "epoch_osculation": "2459000.5",
        "eccentricity": ".5953855658362996",
        "semi_major_axis": "2.464878456116035",
        "inclination": "5.675903109224588",
        "ascending_node_longitude": "108.94499224054",
        "orbital_period": "1413.486582457249",
        "perihelion_distance": ".9973254018036849",
        "perihelion_argument": "356.7811342593149",
        "aphelion_distance": "3.932431510428386",
        "perihelion_time": "2458808.261649058702",
        "mean_anomaly": "48.96106351328622",
        "mean_motion": ".2546893649136484",
        "equinox": "J2000",
        "orbit_class": {
            "orbit_class_type": "APO",
            "orbit_class_description": "Near-Earth asteroid orbits which cross the Earth’s orbit similar to that of 1862 Apollo",
            "orbit_class_range": "a (semi-major axis) > 1.0 AU; q (perihelion) < 1.017 AU"
        }
    },
    "is_sentry_object": false
}